[Satellite]
VERSION=1.1
NAME=CZ-2C R/B
NICKNAME=CZ-2C R/B
TLE1=1 28480U 04046B   19317.83702763  .00000001  00000-0  15045-4 0  9993
TLE2=2 28480  98.1112   4.2170 0142687 145.8584 267.6408 14.25710125779579
STATUS=0
